ONEWEB-0043             
1 45149U 20008U   23357.61067440  .00000630  00000+0  17682-2 0  9995
2 45149  87.8903 216.3341 0000984  67.6226 292.5005 13.10373174189450
ONEWEB-0044             
1 45150U 20008V   23357.63989865 -.00000547  00000+0 -16027-2 0  9994
2 45150  87.8906 216.3262 0001112  82.7704 277.3550 13.10371279190520
ONEWEB-0045             
1 45151U 20008W   23357.52800202 -.00000555  00000+0 -16007-2 0  9997
2 45151  87.8956 201.2223 0001512  90.0853 270.0448 13.11417181191573
ONEWEB-0047             
1 45152U 20008X   23357.63179544 -.00000560  00000+0 -16402-2 0  9993
2 45152  87.8902 216.3288 0001326  78.1155 282.0121 13.10365377189473
ONEWEB-0048             
1 45153U 20008Y   23357.70327075  .00002454  00000+0  69937-2 0  9999
2 45153  87.8906 216.3259 0001409  92.1074 268.0215 13.10356326189869
ONEWEB-0049             
1 45154U 20008Z   23357.70490301 -.00000252  00000+0 -75912-3 0  9990
2 45154  87.8909 216.2987 0001499  58.4975 301.6299 13.10369630190099
ONEWEB-0051             
1 45155U 20008AA  23357.60269626 -.00000497  00000+0 -14374-2 0  9999
2 45155  87.8968 201.2473 0001648  90.1588 269.9728 13.11417718192264
ONEWEB-0052             
1 45156U 20008AB  23357.70167635  .00000169  00000+0  44649-3 0  9991
2 45156  87.8898 216.2846 0001452  51.9489 308.1769 13.10374758189986
